IRIDIUM 107             
1 42960U 17061F   24070.92364123  .00000078  00000+0  20842-4 0  9993
2 42960  86.4023  11.3855 0002409  91.3536 268.7935 14.34215786336105
IRIDIUM 132             
1 42961U 17061G   24070.58113771  .00000356  00000+0  12015-3 0  9998
2 42961  86.4020  11.5135 0002258  91.2348 268.9106 14.34220157336052
IRIDIUM 136             
1 42962U 17061H   24070.89192461  .00000039  00000+0  67432-5 0  9999
2 42962  86.4024  11.3866 0001923  86.2958 273.8458 14.34215151336115
IRIDIUM 139             
1 42963U 17061J   24070.89827266  .00000471  00000+0  16114-3 0  9997
2 42963  86.4024  11.4326 0002369  89.3161 270.8306 14.34217750336120
IRIDIUM 125             
1 42964U 17061K   24070.88558706  .00000211  00000+0  68253-4 0  9991
2 42964  86.4026  11.4837 0002096  96.0175 264.1260 14.34217052336138
IRIDIUM 135             
1 43070U 17083A   24070.92947822  .00000193  00000+0  61930-4 0  9994
2 43070  86.3958 308.1806 0002377  80.8758 279.2706 14.34219083325431
IRIDIUM 138             
1 43071U 17083B   24070.88508188 -.00000019  00000+0 -13874-4 0  9991
2 43071  86.3946 307.9281 0001826  92.8868 267.2537 14.34216611325417
